{
  "links" : {
    "next" : "https://api.nasa.gov/neo/rest/v1/feed?start_date=2011-02-16&end_date=2011-02-16&detailed=true&api_key=t0TVs3DtDT2H8Oy2Zy8m2eVrNsAVKAexjcZXUckd",
    "prev" : "https://api.nasa.gov/neo/rest/v1/feed?start_date=2011-02-14&end_date=2011-02-14&detailed=true&api_key=t0TVs3DtDT2H8Oy2Zy8m2eVrNsAVKAexjcZXUckd",
    "self" : "https://api.nasa.gov/neo/rest/v1/feed?start_date=2011-02-15&end_date=2011-02-15&detailed=true&api_key=t0TVs3DtDT2H8Oy2Zy8m2eVrNsAVKAexjcZXUckd"
  },
  "element_count" : 7,
  "near_earth_objects" : {
    "2011-02-15" : [ {
      "links" : {
        "self" : "https://api.nasa.gov/neo/rest/v1/neo/3557825?api_key=t0TVs3DtDT2H8Oy2Zy8m2eVrNsAVKAexjcZXUckd"
      },
      "neo_reference_id" : "3557825",
      "name" : "(2011 DO)",
      "nasa_jpl_url" : "http://ssd.jpl.nasa.gov/sbdb.cgi?sstr=3557825",
      "absolute_magnitude_h" : 22.8,
      "estimated_diameter" : {
        "kilometers" : {
          "estimated_diameter_min" : 0.0732073989,
          "estimated_diameter_max" : 0.1636967205
        },
        "meters" : {
          "estimated_diameter_min" : 73.2073989347,
          "estimated_diameter_max" : 163.696720474
        },
        "miles" : {
          "estimated_diameter_min" : 0.0454889547,
          "estimated_diameter_max" : 0.1017163949
        },
        "feet" : {
          "estimated_diameter_min" : 240.181762721,
          "estimated_diameter_max" : 537.0627483999
        }
      },
      "is_potentially_hazardous_asteroid" : false,
      "close_approach_data" : [ {
        "close_approach_date" : "2011-02-15",
        "epoch_date_close_approach" : 1297756800000,
        "relative_velocity" : {
          "kilometers_per_second" : "15.2361880904",
          "kilometers_per_hour" : "54850.2771254285",
          "miles_per_hour" : "34081.8291394086"
        },
        "miss_distance" : {
          "astronomical" : "0.045838278",
          "lunar" : "17.8310909271",
          "kilometers" : "6857309",
          "miles" : "4260934"
        },
        "orbiting_body" : "Earth"
      } ],
      "orbital_data" : {
        "orbit_id" : "12",
        "orbit_determination_date" : "2017-04-06 08:54:24",
        "orbit_uncertainty" : "7",
        "minimum_orbit_intersection" : ".0364887",
        "jupiter_tisserand_invariant" : "4.942",
        "epoch_osculation" : "2458000.5",
        "eccentricity" : ".4548856167874193",
        "semi_major_axis" : "1.270886989530334",
        "inclination" : "15.68973430162869",
        "ascending_node_longitude" : "154.2645578748835",
        "orbital_period" : "523.3097513301993",
        "perihelion_distance" : ".6927787774307214",
        "perihelion_argument" : "261.4589770449533",
        "aphelion_distance" : "1.848995201629946",
        "perihelion_time" : "2458166.147114010249",
        "mean_anomaly" : "246.0465319208958",
        "mean_motion" : ".6879290880495103",
        "equinox" : "J2000"
      }
    }, {
      "links" : {
        "self" : "https://api.nasa.gov/neo/rest/v1/neo/3558387?api_key=t0TVs3DtDT2H8Oy2Zy8m2eVrNsAVKAexjcZXUckd"
      },
      "neo_reference_id" : "3558387",
      "name" : "(2011 EG17)",
      "nasa_jpl_url" : "http://ssd.jpl.nasa.gov/sbdb.cgi?sstr=3558387",
      "absolute_magnitude_h" : 20.6,
      "estimated_diameter" : {
        "kilometers" : {
          "estimated_diameter_min" : 0.2016299194,
          "estimated_diameter_max" : 0.4508582062
        },
        "meters" : {
          "estimated_diameter_min" : 201.6299194428,
          "estimated_diameter_max" : 450.8582061718
        },
        "miles" : {
          "estimated_diameter_min" : 0.1252869847,
          "estimated_diameter_max" : 0.2801502144
        },
        "feet" : {
          "estimated_diameter_min" : 661.5155049046,
          "estimated_diameter_max" : 1479.1936371367
        }
      },
      "is_potentially_hazardous_asteroid" : true,
      "close_approach_data" : [ {
        "close_approach_date" : "2011-02-15",
        "epoch_date_close_approach" : 1297756800000,
        "relative_velocity" : {
          "kilometers_per_second" : "11.4207945569",
          "kilometers_per_hour" : "41114.8604048184",
          "miles_per_hour" : "25547.1753443162"
        },
        "miss_distance" : {
          "astronomical" : "0.3599695685",
          "lunar" : "140.0281524658",
          "kilometers" : "53850680",
          "miles" : "33461260"
        },
        "orbiting_body" : "Earth"
      } ],
      "orbital_data" : {
        "orbit_id" : "26",
        "orbit_determination_date" : "2017-04-06 08:54:13",
        "orbit_uncertainty" : "1",
        "minimum_orbit_intersection" : ".0439084",
        "jupiter_tisserand_invariant" : "4.649",
        "epoch_osculation" : "2458000.5",
        "eccentricity" : ".4187310676789489",
        "semi_major_axis" : "1.379914815489344",
        "inclination" : "20.11205823947074",
        "ascending_node_longitude" : "170.1616467522472",
        "orbital_period" : "592.0751628373572",
        "perihelion_distance" : ".8021016114934914",
        "perihelion_argument" : "241.4871577635625",
        "aphelion_distance" : "1.957728019485197",
        "perihelion_time" : "2457885.589286408348",
        "mean_anomaly" : "69.86926574448853",
        "mean_motion" : ".6080309099182596",
        "equinox" : "J2000"
      }
    }, {
      "links" : {
        "self" : "https://api.nasa.gov/neo/rest/v1/neo/3611396?api_key=t0TVs3DtDT2H8Oy2Zy8m2eVrNsAVKAexjcZXUckd"
      },
      "neo_reference_id" : "3611396",
      "name" : "(2012 TQ146)",
      "nasa_jpl_url" : "http://ssd.jpl.nasa.gov/sbdb.cgi?sstr=3611396",
      "absolute_magnitude_h" : 26.4,
      "estimated_diameter" : {
        "kilometers" : {
          "estimated_diameter_min" : 0.0139493823,
          "estimated_diameter_max" : 0.0311917671
        },
        "meters" : {
          "estimated_diameter_min" : 13.9493822934,
          "estimated_diameter_max" : 31.1917670523
        },
        "miles" : {
          "estimated_diameter_min" : 0.0086677416,
          "estimated_diameter_max" : 0.0193816595
        },
        "feet" : {
          "estimated_diameter_min" : 45.7656914036,
          "estimated_diameter_max" : 102.3351970157
        }
      },
      "is_potentially_hazardous_asteroid" : false,
      "close_approach_data" : [ {
        "close_approach_date" : "2011-02-15",
        "epoch_date_close_approach" : 1297756800000,
        "relative_velocity" : {
          "kilometers_per_second" : "17.7586727257",
          "kilometers_per_hour" : "63931.2218124656",
          "miles_per_hour" : "39724.3750200846"
        },
        "miss_distance" : {
          "astronomical" : "0.2950297897",
          "lunar" : "114.7665863037",
          "kilometers" : "44135828",
          "miles" : "27424732"
        },
        "orbiting_body" : "Earth"
      } ],
      "orbital_data" : {
        "orbit_id" : "4",
        "orbit_determination_date" : "2017-04-06 08:48:34",
        "orbit_uncertainty" : "7",
        "minimum_orbit_intersection" : ".00429634",
        "jupiter_tisserand_invariant" : "4.362",
        "epoch_osculation" : "2458000.5",
        "eccentricity" : ".424151167871461",
        "semi_major_axis" : "1.539086225362885",
        "inclination" : "4.977256577555035",
        "ascending_node_longitude" : "20.27554847165514",
        "orbital_period" : "697.4175210314791",
        "perihelion_distance" : ".8862810054203389",
        "perihelion_argument" : "54.04989827419401",
        "aphelion_distance" : "2.191891445305431",
        "perihelion_time" : "2458348.973474582069",
        "mean_anomaly" : "180.1214522629086",
        "mean_motion" : ".5161900714331936",
        "equinox" : "J2000"
      }
    } ]
  }
}